ONEWEB-0674             
1 55833U 23029AP  24181.92269167  .00000217  00000+0  55158-3 0  9994
2 55833  87.8961  72.4305 0002384  88.0101 272.1301 13.14505510 65182
ONEWEB-0675             
1 55834U 23029AQ  24181.82875157  .00000123  00000+0  27397-3 0  9996
2 55834  87.9158  87.7292 0001692  67.6529 292.4783 13.19726578 64300
ONEWEB-0720             
1 55835U 23029AR  24182.19993024  .00000115  00000+0  25503-3 0  9990
2 55835  87.9156  87.6557 0002386  69.3938 290.7450 13.19727692 64968
ONEWEB-0537             
1 56046U 23043A   24181.93529021  .00000023  00000+0  27610-4 0  9994
2 56046  87.9097  11.5550 0001504  89.1395 270.9908 13.16595610 64580
ONEWEB-0538             
1 56047U 23043B   24181.92895937  .00000018  00000+0  12614-4 0  9998
2 56047  87.9098  11.5760 0001771  79.9643 280.1688 13.16595443 64597
ONEWEB-0546             
1 56048U 23043C   24181.91629386  .00000098  00000+0  22346-3 0  9991
2 56048  87.9100  11.5425 0001170 111.4562 248.6693 13.16595299 64588
ONEWEB-0547             
1 56049U 23043D   24182.10166103  .00001183  00000+0  28321-2 0  9991
2 56049  87.9277  26.7296 0001889  78.3376 281.7970 13.21836063 64409
ONEWEB-0548             
1 56050U 23043E   24181.78962560  .00000037  00000+0  64200-4 0  9992
2 56050  87.9097  11.6108 0002351  98.6782 261.4615 13.16596156 64565
